{"type": "FeatureCollection", "features": [ {"type": "Feature", "properties": {"norad_id": 39574, "name": "GPM-CORE", "group": "resource", "lat": -4.455033334531414, "lon": -114.31354327596591, "alt_km": 433.26281240146636, "timestamp": "2025-12-02T06:27:52.678070+00:00", "meta": {"OBJECT_NAME": "GPM-CORE", "OBJECT_ID": "2014-009C", "EPOCH": "2025-12-01T19:36:43.333344", "MEAN_MOTION": 15.4510628, "ECCENTRICITY": 0.0010581, "INCLINATION": 64.9752, "RA_OF_ASC_NODE": 249.2871, "ARG_OF_PERICENTER": 268.4571, "MEAN_ANOMALY": 91.5358, "EPHEMERIS_TYPE": 0, "CLASSIFICATION_TYPE": "U", "NORAD_CAT_ID": 39574, "ELEMENT_SET_NO": 999, "REV_AT_EPOCH": 66732, "BSTAR": 0.00034722, "MEAN_MOTION_DOT": 0.0001634, "MEAN_MOTION_DDOT": 0}, "tle": {"line1": "1 39574U 14009C   25335.81716821  .00016340  00000+0  34722-3 0  9998", "line2": "2 39574  64.9752 249.2871 0010581 268.4571  91.5358 15.45106280667321"}}, "geometry": {"type": "Point", "coordinates": [-114.31354327596591, -4.455033334531414]}}, {"type": "Feature", "properties": {"norad_id": 39634, "name": "SENTINEL-1A", "group": "resource", "lat": -53.67762061260828, "lon": 150.38154630748278, "alt_km": 703.4922081040559, "timestamp": "2025-12-02T06:27:52.678080+00:00", "meta": {"OBJECT_NAME": "SENTINEL-1A", "OBJECT_ID": "2014-016A", "EPOCH": "2025-12-01T21:09:54.444096", "MEAN_MOTION": 14.59200072, "ECCENTRICITY": 0.0001259, "INCLINATION": 98.1805, "RA_OF_ASC_NODE": 341.2835, "ARG_OF_PERICENTER": 89.7207, "MEAN_ANOMALY": 270.4137, "EPHEMERIS_TYPE": 0, "CLASSIFICATION_TYPE": "U", "NORAD_CAT_ID": 39634, "ELEMENT_SET_NO": 999, "REV_AT_EPOCH": 62124, "BSTAR": 5.7101e-05, "MEAN_MOTION_DOT": 2.23e-06, "MEAN_MOTION_DDOT": 0}, "tle": {"line1": "1 39634U 14016A   25335.88188014  .00000223  00000+0  57101-4 0  9997", "line2": "2 39634  98.1805 341.2835 0001259  89.7207 270.4137 14.59200072621243"}}, "geometry": {"type": "Point", "coordinates": [150.38154630748278, -53.67762061260828]}}, {"type": "Feature", "properties": {"norad_id": 39731, "name": "KAZEOSAT 1", "group": "resource", "lat": 45.24414323970767, "lon": -123.07606028520875, "alt_km": 747.2157102004276, "timestamp": "2025-12-02T06:27:52.678090+00:00", "meta": {"OBJECT_NAME": "KAZEOSAT 1", "OBJECT_ID": "2014-024A", "EPOCH": "2025-12-01T19:51:12.905280", "MEAN_MOTION": 14.4205184, "ECCENTRICITY": 0.0001055, "INCLINATION": 98.3446, "RA_OF_ASC_NODE": 47.9789, "ARG_OF_PERICENTER": 98.2205, "MEAN_ANOMALY": 261.9104, "EPHEMERIS_TYPE": 0, "CLASSIFICATION_TYPE": "U", "NORAD_CAT_ID": 39731, "ELEMENT_SET_NO": 999, "REV_AT_EPOCH": 61011, "BSTAR": 9.1904e-05, "MEAN_MOTION_DOT": 2.59e-06, "MEAN_MOTION_DDOT": 0}, "tle": {"line1": "1 39731U 14024A   25335.82723270  .00000259  00000+0  91904-4 0  9995", "line2": "2 39731  98.3446  47.9789 0001055  98.2205 261.9104 14.42051840610111"}}, "geometry": {"type": "Point", "coordinates": [-123.07606028520875, 45.24414323970767]}}, {"type": "Feature", "properties": {"norad_id": 39766, "name": "ALOS-2", "group": "resource", "lat": 49.95611007278139, "lon": 61.72566276094756, "alt_km": 625.6795115494306, "timestamp": "2025-12-02T06:27:52.678100+00:00", "meta": {"OBJECT_NAME": "ALOS-2", "OBJECT_ID": "2014-029A", "EPOCH": "2025-12-01T20:29:51.889056", "MEAN_MOTION": 14.79504813, "ECCENTRICITY": 0.0001375, "INCLINATION": 97.9233, "RA_OF_ASC_NODE": 70.8552, "ARG_OF_PERICENTER": 99.0861, "MEAN_ANOMALY": 261.0506, "EPHEMERIS_TYPE": 0, "CLASSIFICATION_TYPE": "U", "NORAD_CAT_ID": 39766, "ELEMENT_SET_NO": 999, "REV_AT_EPOCH": 62240, "BSTAR": 0.00029911, "MEAN_MOTION_DOT": 2.185e-05, "MEAN_MOTION_DDOT": 0}, "tle": {"line1": "1 39766U 14029A   25335.85407279  .00002185  00000+0  29911-3 0  9997", "line2": "2 39766  97.9233  70.8552 0001375  99.0861 261.0506 14.79504813622408"}}, "geometry": {"type": "Point", "coordinates": [61.72566276094756, 49.95611007278139]}}, {"type": "Feature", "properties": {"norad_id": 40010, "name": "KAZEOSAT 2", "group": "resource", "lat": 71.63393954068275, "lon": 24.674146039171035, "alt_km": 610.0842312487357, "timestamp": "2025-12-02T06:27:52.678110+00:00", "meta": {"OBJECT_NAME": "KAZEOSAT 2", "OBJECT_ID": "2014-033A", "EPOCH": "2025-12-01T20:16:58.876896", "MEAN_MOTION": 14.85138037, "ECCENTRICITY": 0.0007196, "INCLINATION": 97.5512, "RA_OF_ASC_NODE": 180.7216, "ARG_OF_PERICENTER": 247.7182, "MEAN_ANOMALY": 112.3271, "EPHEMERIS_TYPE": 0, "CLASSIFICATION_TYPE": "U", "NORAD_CAT_ID": 40010, "ELEMENT_SET_NO": 999, "REV_AT_EPOCH": 61966, "BSTAR": 0.00010684, "MEAN_MOTION_DOT": 8.64e-06, "MEAN_MOTION_DDOT": 0}, "tle": {"line1": "1 40010U 14033A   25335.84512589  .00000864  00000+0  10684-3 0  9995", "line2": "2 40010  97.5512 180.7216 0007196 247.7182 112.3271 14.85138037619660"}}, "geometry": {"type": "Point", "coordinates": [24.674146039171035, 71.63393954068275]}}, {"type": "Feature", "properties": {"norad_id": 40011, "name": "HODOYOSHI-4", "group": "resource", "lat": 70.55935318877115, "lon": 7.715547974553409, "alt_km": 609.0580196038973, "timestamp": "2025-12-02T06:27:52.678121+00:00", "meta": {"OBJECT_NAME": "HODOYOSHI-4", "OBJECT_ID": "2014-033B", "EPOCH": "2025-12-01T20:17:31.231104", "MEAN_MOTION": 14.87415581, "ECCENTRICITY": 0.0022601, "INCLINATION": 97.5418, "RA_OF_ASC_NODE": 165.2662, "ARG_OF_PERICENTER": 238.0899, "MEAN_ANOMALY": 121.812, "EPHEMERIS_TYPE": 0, "CLASSIFICATION_TYPE": "U", "NORAD_CAT_ID": 40011, "ELEMENT_SET_NO": 999, "REV_AT_EPOCH": 61946, "BSTAR": 0.00019611, "MEAN_MOTION_DOT": 1.73e-05, "MEAN_MOTION_DDOT": 0}, "tle": {"line1": "1 40011U 14033B   25335.84550036  .00001730  00000+0  19611-3 0  9997", "line2": "2 40011  97.5418 165.2662 0022601 238.0899 121.8120 14.87415581619465"}}, "geometry": {"type": "Point", "coordinates": [7.715547974553409, 70.55935318877115]}}, {"type": "Feature", "properties": {"norad_id": 40013, "name": "DEIMOS-2", "group": "resource", "lat": 57.97388764595035, "lon": -159.9231660648216, "alt_km": 582.8712152432754, "timestamp": "2025-12-02T06:27:52.678131+00:00", "meta": {"OBJECT_NAME": "DEIMOS-2", "OBJECT_ID": "2014-033D", "EPOCH": "2025-12-01T20:33:01.847232", "MEAN_MOTION": 14.92890461, "ECCENTRICITY": 7.39e-05, "INCLINATION": 97.6073, "RA_OF_ASC_NODE": 212.0148, "ARG_OF_PERICENTER": 79.1479, "MEAN_ANOMALY": 280.9824, "EPHEMERIS_TYPE": 0, "CLASSIFICATION_TYPE": "U", "NORAD_CAT_ID": 40013, "ELEMENT_SET_NO": 999, "REV_AT_EPOCH": 60827, "BSTAR": 0.00024304, "MEAN_MOTION_DOT": 2.465e-05, "MEAN_MOTION_DDOT": 0}, "tle": {"line1": "1 40013U 14033D   25335.85627138  .00002465  00000+0  24304-3 0  9999", "line2": "2 40013  97.6073 212.0148 0000739  79.1479 280.9824 14.92890461608276"}}, "geometry": {"type": "Point", "coordinates": [-159.9231660648216, 57.97388764595035]}}, {"type": "Feature", "properties": {"norad_id": 40015, "name": "HODOYOSHI-3", "group": "resource", "lat": 45.50783283094788, "lon": -29.609094211282017, "alt_km": 629.7741137391913, "timestamp": "2025-12-02T06:27:52.678141+00:00", "meta": {"OBJECT_NAME": "HODOYOSHI-3", "OBJECT_ID": "2014-033F", "EPOCH": "2025-12-01T16:55:18.207840", "MEAN_MOTION": 14.84742912, "ECCENTRICITY": 0.0031881, "INCLINATION": 97.6193, "RA_OF_ASC_NODE": 142.0202, "ARG_OF_PERICENTER": 285.7279, "MEAN_ANOMALY": 74.0421, "EPHEMERIS_TYPE": 0, "CLASSIFICATION_TYPE": "U", "NORAD_CAT_ID": 40015, "ELEMENT_SET_NO": 999, "REV_AT_EPOCH": 61831, "BSTAR": 0.00022034, "MEAN_MOTION_DOT": 1.831e-05, "MEAN_MOTION_DDOT": 0}, "tle": {"line1": "1 40015U 14033F   25335.70507185  .00001831  00000+0  22034-3 0  9998", "line2": "2 40015  97.6193 142.0202 0031881 285.7279  74.0421 14.84742912618318"}}, "geometry": {"type": "Point", "coordinates": [-29.609094211282017, 45.50783283094788]}}, {"type": "Feature", "properties": {"norad_id": 40053, "name": "SPOT 7", "group": "resource", "lat": 41.21024622400235, "lon": 31.428138914806915, "alt_km": 686.9747025401557, "timestamp": "2025-12-02T06:27:52.678151+00:00", "meta": {"OBJECT_NAME": "SPOT 7", "OBJECT_ID": "2014-034A", "EPOCH": "2025-12-01T20:24:36.768384", "MEAN_MOTION": 14.60710251, "ECCENTRICITY": 0.0001508, "INCLINATION": 98.0921, "RA_OF_ASC_NODE": 38.1763, "ARG_OF_PERICENTER": 97.835, "MEAN_ANOMALY": 262.3022, "EPHEMERIS_TYPE": 0, "CLASSIFICATION_TYPE": "U", "NORAD_CAT_ID": 40053, "ELEMENT_SET_NO": 999, "REV_AT_EPOCH": 60832, "BSTAR": 0.00013992, "MEAN_MOTION_DOT": 6.36e-06, "MEAN_MOTION_DDOT": 0}, "tle": {"line1": "1 40053U 14034A   25335.85042556  .00000636  00000+0  13992-3 0  9998", "line2": "2 40053  98.0921  38.1763 0001508  97.8350 262.3022 14.60710251608320"}}, "geometry": {"type": "Point", "coordinates": [31.428138914806915, 41.21024622400235]}}, {"type": "Feature", "properties": {"norad_id": 40072, "name": "SKYSAT-B", "group": "resource", "lat": 55.32648739590737, "lon": -92.84810827478618, "alt_km": 603.4225470001375, "timestamp": "2025-12-02T06:27:52.678162+00:00", "meta": {"OBJECT_NAME": "SKYSAT-B", "OBJECT_ID": "2014-037D", "EPOCH": "2025-12-01T20:31:27.742080", "MEAN_MOTION": 14.87259028, "ECCENTRICITY": 0.0005259, "INCLINATION": 98.3589, "RA_OF_ASC_NODE": 278.9881, "ARG_OF_PERICENTER": 184.2176, "MEAN_ANOMALY": 175.8995, "EPHEMERIS_TYPE": 0, "CLASSIFICATION_TYPE": "U", "NORAD_CAT_ID": 40072, "ELEMENT_SET_NO": 999, "REV_AT_EPOCH": 61662, "BSTAR": 0.0002629, "MEAN_MOTION_DOT": 2.309e-05, "MEAN_MOTION_DDOT": 0}, "tle": {"line1": "1 40072U 14037D   25335.85518220  .00002309  00000+0  26290-3 0  9992", "line2": "2 40072  98.3589 278.9881 0005259 184.2176 175.8995 14.87259028616621"}}, "geometry": {"type": "Point", "coordinates": [-92.84810827478618, 55.32648739590737]}}]}